{
    "links": {
        "self": "http://www.neowsapp.com/rest/v1/neo/54051137?api_key=iIulBulltgU6a56xZRHN4H3l9WmuAYTsLGpBGhQ2"
    },
    "id": "54051137",
    "neo_reference_id": "54051137",
    "name": "(2020 PR5)",
    "designation": "2020 PR5",
    "nasa_jpl_url": "http://ssd.jpl.nasa.gov/sbdb.cgi?sstr=54051137",
    "absolute_magnitude_h": 25.57,
    "estimated_diameter": {
        "kilometers": {
            "estimated_diameter_min": 0.0204434871,
            "estimated_diameter_max": 0.0457130269
        },
        "meters": {
            "estimated_diameter_min": 20.4434871028,
            "estimated_diameter_max": 45.713026859
        },
        "miles": {
            "estimated_diameter_min": 0.01270299,
            "estimated_diameter_max": 0.0284047492
        },
        "feet": {
            "estimated_diameter_min": 67.0718102264,
            "estimated_diameter_max": 149.9771270402
        }
    },
    "is_potentially_hazardous_asteroid": false,
    "close_approach_data": [
        {
            "close_approach_date": "2017-07-22",
            "close_approach_date_full": "2017-Jul-22 15:09",
            "epoch_date_close_approach": 1500736140000,
            "relative_velocity": {
                "kilometers_per_second": "11.6063282252",
                "kilometers_per_hour": "41782.7816107902",
                "miles_per_hour": "25962.1956069935"
            },
            "miss_distance": {
                "astronomical": "0.3914029435",
                "lunar": "152.2557450215",
                "kilometers": "58553046.659330345",
                "miles": "36383176.083814961"
            },
            "orbiting_body": "Earth"
        },
        {
            "close_approach_date": "2020-08-08",
            "close_approach_date_full": "2020-Aug-08 07:18",
            "epoch_date_close_approach": 1596871080000,
            "relative_velocity": {
                "kilometers_per_second": "4.9235432482",
                "kilometers_per_hour": "17724.7556936453",
                "miles_per_hour": "11013.4738919764"
            },
            "miss_distance": {
                "astronomical": "0.1432272139",
                "lunar": "55.7153862071",
                "kilometers": "21426486.125474393",
                "miles": "13313801.1092089034"
            },
            "orbiting_body": "Earth"
        },
        {
            "close_approach_date": "2023-08-25",
            "close_approach_date_full": "2023-Aug-25 04:13",
            "epoch_date_close_approach": 1692936780000,
            "relative_velocity": {
                "kilometers_per_second": "9.8533896659",
                "kilometers_per_hour": "35472.2027970688",
                "miles_per_hour": "22041.0473435453"
            },
            "miss_distance": {
                "astronomical": "0.3490158811",
                "lunar": "135.7671777479",
                "kilometers": "52212032.408733257",
                "miles": "32443052.5344506666"
            },
            "orbiting_body": "Earth"
        }
    ],
    "orbital_data": {
        "orbit_id": "1",
        "orbit_determination_date": "2020-08-18 05:12:12",
        "first_observation_date": "2020-07-18",
        "last_observation_date": "2020-08-18",
        "data_arc_in_days": 31,
        "observations_used": 25,
        "orbit_uncertainty": "6",
        "minimum_orbit_intersection": ".141128",
        "jupiter_tisserand_invariant": "3.604",
        "epoch_osculation": "2459000.5",
        "eccentricity": ".4517051702145292",
        "semi_major_axis": "2.103876820361395",
        "inclination": "4.857816062289965",
        "ascending_node_longitude": "310.3523034212555",
        "orbital_period": "1114.625283275944",
        "perihelion_distance": "1.153544783109649",
        "perihelion_argument": "9.564734967481609",
        "aphelion_distance": "3.054208857613142",
        "perihelion_time": "2459072.370200298208",
        "mean_anomaly": "336.7874706454602",
        "mean_motion": ".3229784981567444",
        "equinox": "J2000",
        "orbit_class": {
            "orbit_class_type": "AMO",
            "orbit_class_description": "Near-Earth asteroid orbits similar to that of 1221 Amor",
            "orbit_class_range": "1.017 AU < q (perihelion) < 1.3 AU"
        }
    },
    "is_sentry_object": false
}